start=new Date('2022-06-06T00:00:00.000Z').valueOf();
sats=[{"PERIOD":"95.592","LAUNCH_DATE":"2021-03-14","REF_FRAME":"TEME","FILE":"3482995","RCS_SIZE":"LARGE","MEAN_MOTION_DDOT":"0.0000000000000","REV_AT_EPOCH":"6952","INCLINATION":"53.0542","TLE_LINE2":"2 47869  53.0542 304.5148 0001573  67.0368 293.0787 15.06395791 69520","DECAY_DATE":null,"TLE_LINE1":"1 47869U 21021K   22156.85704827  .00000970  00000-0  84026-4 0  9997","MEAN_MOTION":"15.06395791","MEAN_ELEMENT_THEORY":"SGP4","OBJECT_ID":"2021-021K","PERIAPSIS":"546.137","SEMIMAJOR_AXIS":"6925.361","MEAN_ANOMALY":"293.0787","NORAD_CAT_ID":"47869","BSTAR":"0.00008402600000","EPHEMERIS_TYPE":"0","MEAN_MOTION_DOT":"0.00000970","ELEMENT_SET_NO":"999","APOAPSIS":"548.316","ECCENTRICITY":"0.00015730","GP_ID":"205445184","EPOCH":"2022-06-05T20:34:08.970528","CENTER_NAME":"EARTH","COUNTRY_CODE":"US","ARG_OF_PERICENTER":"67.0368","TIME_SYSTEM":"UTC","SITE":"AFETR","OBJECT_NAME":"STARLINK-2324","RA_OF_ASC_NODE":"304.5148","OBJECT_TYPE":"PAYLOAD","CLASSIFICATION_TYPE":"U"},{"APOAPSIS":"548.360","ECCENTRICITY":"0.00016480","GP_ID":"205445434","ELEMENT_SET_NO":"999","EPOCH":"2022-06-05T21:00:01.125792","ARG_OF_PERICENTER":"53.9047","CENTER_NAME":"EARTH","COUNTRY_CODE":"US","OBJECT_NAME":"STARLINK-2326","OBJECT_TYPE":"PAYLOAD","RA_OF_ASC_NODE":"329.4155","CLASSIFICATION_TYPE":"U","TIME_SYSTEM":"UTC","SITE":"AFETR","FILE":"3482995","RCS_SIZE":"LARGE","MEAN_MOTION_DDOT":"0.0000000000000","REV_AT_EPOCH":"6896","PERIOD":"95.592","LAUNCH_DATE":"2021-03-14","REF_FRAME":"TEME","DECAY_DATE":null,"TLE_LINE1":"1 47870U 21021L   22156.87501303  .00000823  00000-0  74172-4 0  9993","MEAN_MOTION":"15.06398448","MEAN_ELEMENT_THEORY":"SGP4","INCLINATION":"53.0565","TLE_LINE2":"2 47870  53.0565 329.4155 0001648  53.9047 306.2094 15.06398448 68969","SEMIMAJOR_AXIS":"6925.353","MEAN_ANOMALY":"306.2094","PERIAPSIS":"546.077","OBJECT_ID":"2021-021L","NORAD_CAT_ID":"47870","BSTAR":"0.00007417200000","EPHEMERIS_TYPE":"0","MEAN_MOTION_DOT":"0.00000823"},{"LAUNCH_DATE":"2021-03-14","REF_FRAME":"TEME","PERIOD":"95.592","MEAN_MOTION_DDOT":"0.0000000000000","REV_AT_EPOCH":"6941","FILE":"3482995","RCS_SIZE":"LARGE","INCLINATION":"53.0556","TLE_LINE2":"2 47871  53.0556 304.5329 0001644  65.9364 294.1797 15.06400712 69412","TLE_LINE1":"1 47871U 21021M   22156.85336352  .00000531  00000-0  54519-4 0  9991","MEAN_MOTION":"15.06400712","MEAN_ELEMENT_THEORY":"SGP4","DECAY_DATE":null,"PERIAPSIS":"546.073","OBJECT_ID":"2021-021M","MEAN_ANOMALY":"294.1797","SEMIMAJOR_AXIS":"6925.346","MEAN_MOTION_DOT":"0.00000531","EPHEMERIS_TYPE":"0","NORAD_CAT_ID":"47871","BSTAR":"0.00005451900000","ELEMENT_SET_NO":"999","GP_ID":"205446684","APOAPSIS":"548.350","ECCENTRICITY":"0.00016440","EPOCH":"2022-06-05T20:28:50.608128","COUNTRY_CODE":"US","CENTER_NAME":"EARTH","ARG_OF_PERICENTER":"65.9364","SITE":"AFETR","TIME_SYSTEM":"UTC","CLASSIFICATION_TYPE":"U","OBJECT_NAME":"STARLINK-2327","OBJECT_TYPE":"PAYLOAD","RA_OF_ASC_NODE":"304.5329"},{"EPOCH":"2022-06-05T16:01:36.206688","ELEMENT_SET_NO":"999","APOAPSIS":"444.770","ECCENTRICITY":"0.00087810","GP_ID":"205446935","TIME_SYSTEM":"UTC","SITE":"AFETR","OBJECT_TYPE":"PAYLOAD","RA_OF_ASC_NODE":"243.0740","OBJECT_NAME":"STARLINK-2328","CLASSIFICATION_TYPE":"U","CENTER_NAME":"EARTH","COUNTRY_CODE":"US","ARG_OF_PERICENTER":"315.6195","TLE_LINE2":"2 47872  53.0521 243.0740 0008781 315.6195  44.4105 15.42483580 70274","INCLINATION":"53.0521","DECAY_DATE":null,"MEAN_ELEMENT_THEORY":"SGP4","TLE_LINE1":"1 47872U 21021N   22156.66778017 -.00023406  00000-0 -52334-3 0  9999","MEAN_MOTION":"15.42483580","PERIOD":"93.356","REF_FRAME":"TEME","LAUNCH_DATE":"2021-03-14","RCS_SIZE":"LARGE","FILE":"3482995","REV_AT_EPOCH":"7027","MEAN_MOTION_DDOT":"0.0000000000000","BSTAR":"-0.00052334000000","NORAD_CAT_ID":"47872","MEAN_MOTION_DOT":"-0.00023406","EPHEMERIS_TYPE":"0","OBJECT_ID":"2021-021N","PERIAPSIS":"432.798","SEMIMAJOR_AXIS":"6816.919","MEAN_ANOMALY":"44.4105"},{"GP_ID":"205445684","ECCENTRICITY":"0.00016070","APOAPSIS":"548.324","ELEMENT_SET_NO":"999","EPOCH":"2022-06-05T20:02:17.814624","ARG_OF_PERICENTER":"59.4829","COUNTRY_CODE":"US","CENTER_NAME":"EARTH","CLASSIFICATION_TYPE":"U","RA_OF_ASC_NODE":"304.6130","OBJECT_TYPE":"PAYLOAD","OBJECT_NAME":"STARLINK-2329","SITE":"AFETR","TIME_SYSTEM":"UTC","MEAN_MOTION_DDOT":"0.0000000000000","REV_AT_EPOCH":"6940","RCS_SIZE":"LARGE","FILE":"3482995","REF_FRAME":"TEME","LAUNCH_DATE":"2021-03-14","PERIOD":"95.592","MEAN_ELEMENT_THEORY":"SGP4","MEAN_MOTION":"15.06400740","TLE_LINE1":"1 47873U 21021P   22156.83492841  .00000441  00000-0  48471-4 0  9997","DECAY_DATE":null,"TLE_LINE2":"2 47873  53.0549 304.6130 0001607  59.4829 300.6319 15.06400740 69403","INCLINATION":"53.0549","MEAN_ANOMALY":"300.6319","SEMIMAJOR_AXIS":"6925.346","PERIAPSIS":"546.098","OBJECT_ID":"2021-021P","MEAN_MOTION_DOT":"0.00000441","EPHEMERIS_TYPE":"0","BSTAR":"0.00004847100000","NORAD_CAT_ID":"47873"},{"CLASSIFICATION_TYPE":"U","OBJECT_NAME":"STARLINK-2330","RA_OF_ASC_NODE":"260.7573","OBJECT_TYPE":"PAYLOAD","SITE":"AFETR","TIME_SYSTEM":"UTC","ARG_OF_PERICENTER":"58.4647","COUNTRY_CODE":"US","CENTER_NAME":"EARTH","EPOCH":"2022-06-05T13:54:06.336000","GP_ID":"205445934","ECCENTRICITY":"0.00019330","APOAPSIS":"548.903","ELEMENT_SET_NO":"999","MEAN_MOTION_DOT":"0.00023550","EPHEMERIS_TYPE":"0","NORAD_CAT_ID":"47874","BSTAR":"0.00159950000000","MEAN_ANOMALY":"301.6531","SEMIMAJOR_AXIS":"6925.699","OBJECT_ID":"2021-021Q","PERIAPSIS":"546.225","TLE_LINE1":"1 47874U 21021Q   22156.57924000  .00023550  00000-0  15995-2 0  9995","MEAN_MOTION":"15.06285739","MEAN_ELEMENT_THEORY":"SGP4","DECAY_DATE":null,"INCLINATION":"53.0561","TLE_LINE2":"2 47874  53.0561 260.7573 0001933  58.4647 301.6531 15.06285739 70004","REV_AT_EPOCH":"7000","MEAN_MOTION_DDOT":"0.0000000000000","FILE":"3482995","RCS_SIZE":"LARGE","LAUNCH_DATE":"2021-03-14","REF_FRAME":"TEME","PERIOD":"95.599"},{"OBJECT_ID":"2021-021R","PERIAPSIS":"546.413","SEMIMAJOR_AXIS":"6925.365","MEAN_ANOMALY":"270.1506","BSTAR":"0.00005466500000","NORAD_CAT_ID":"47875","MEAN_MOTION_DOT":"0.00000533","EPHEMERIS_TYPE":"0","PERIOD":"95.592","REF_FRAME":"TEME","LAUNCH_DATE":"2021-03-14","RCS_SIZE":"LARGE","FILE":"3482995","REV_AT_EPOCH":"6932","MEAN_MOTION_DDOT":"0.0000000000000","TLE_LINE2":"2 47875  53.0563 314.6518 0001181  89.9618 270.1506 15.06394484 69320","INCLINATION":"53.0563","DECAY_DATE":null,"MEAN_ELEMENT_THEORY":"SGP4","TLE_LINE1":"1 47875U 21021R   22156.82665136  .00000533  00000-0  54665-4 0  9991","MEAN_MOTION":"15.06394484","CENTER_NAME":"EARTH","COUNTRY_CODE":"US","ARG_OF_PERICENTER":"89.9618","TIME_SYSTEM":"UTC","SITE":"AFETR","RA_OF_ASC_NODE":"314.6518","OBJECT_TYPE":"PAYLOAD","OBJECT_NAME":"STARLINK-2331","CLASSIFICATION_TYPE":"U","ELEMENT_SET_NO":"999","ECCENTRICITY":"0.00011810","APOAPSIS":"548.048","GP_ID":"205446186","EPOCH":"2022-06-05T19:50:22.677504"},{"ARG_OF_PERICENTER":"50.2665","CENTER_NAME":"EARTH","COUNTRY_CODE":"US","OBJECT_NAME":"STARLINK-2332","RA_OF_ASC_NODE":"314.7020","OBJECT_TYPE":"PAYLOAD","CLASSIFICATION_TYPE":"U","TIME_SYSTEM":"UTC","SITE":"AFETR","ECCENTRICITY":"0.00017860","APOAPSIS":"548.438","GP_ID":"205446436","ELEMENT_SET_NO":"999","EPOCH":"2022-06-05T19:34:25.619520","SEMIMAJOR_AXIS":"6925.336","MEAN_ANOMALY":"309.8482","PERIAPSIS":"545.964","OBJECT_ID":"2021-021S","NORAD_CAT_ID":"47876","BSTAR":"0.00006912100000","EPHEMERIS_TYPE":"0","MEAN_MOTION_DOT":"0.00000748","FILE":"3482995","RCS_SIZE":"LARGE","MEAN_MOTION_DDOT":"0.0000000000000","REV_AT_EPOCH":"6927","PERIOD":"95.592","LAUNCH_DATE":"2021-03-14","REF_FRAME":"TEME","DECAY_DATE":null,"TLE_LINE1":"1 47876U 21021S   22156.81557430  .00000748  00000-0  69121-4 0  9999","MEAN_MOTION":"15.06404058","MEAN_ELEMENT_THEORY":"SGP4","INCLINATION":"53.0558","TLE_LINE2":"2 47876  53.0558 314.7020 0001786  50.2665 309.8482 15.06404058 69274"},{"TIME_SYSTEM":"UTC","SITE":"AFETR","OBJECT_TYPE":"PAYLOAD","RA_OF_ASC_NODE":"314.6332","OBJECT_NAME":"STARLINK-2333","CLASSIFICATION_TYPE":"U","CENTER_NAME":"EARTH","COUNTRY_CODE":"US","ARG_OF_PERICENTER":"68.1142","EPOCH":"2022-06-05T19:55:40.293408","ELEMENT_SET_NO":"999","ECCENTRICITY":"0.00015090","APOAPSIS":"548.250","GP_ID":"205445185","BSTAR":"0.00003662500000","NORAD_CAT_ID":"47877","EPHEMERIS_TYPE":"0","MEAN_MOTION_DOT":"0.00000264","PERIAPSIS":"546.160","OBJECT_ID":"2021-021T","SEMIMAJOR_AXIS":"6925.340","MEAN_ANOMALY":"292.0008","TLE_LINE2":"2 47877  53.0563 314.6332 0001509  68.1142 292.0008 15.06402807 69263","INCLINATION":"53.0563","DECAY_DATE":null,"MEAN_ELEMENT_THEORY":"SGP4","TLE_LINE1":"1 47877U 21021T   22156.83032747  .00000264  00000-0  36625-4 0  9997","MEAN_MOTION":"15.06402807","PERIOD":"95.592","REF_FRAME":"TEME","LAUNCH_DATE":"2021-03-14","RCS_SIZE":"LARGE","FILE":"3482995","MEAN_MOTION_DDOT":"0.0000000000000","REV_AT_EPOCH":"6926"},{"LAUNCH_DATE":"2021-03-14","REF_FRAME":"TEME","PERIOD":"95.592","REV_AT_EPOCH":"6904","MEAN_MOTION_DDOT":"0.0000000000000","FILE":"3482995","RCS_SIZE":"LARGE","INCLINATION":"53.0564","TLE_LINE2":"2 47878  53.0564 315.1773 0001762  59.1864 300.9298 15.06405272 69047","MEAN_MOTION":"15.06405272","TLE_LINE1":"1 47878U 21021U   22156.70868223  .00001262  00000-0  10357-3 0  9992","MEAN_ELEMENT_THEORY":"SGP4","DECAY_DATE":null,"OBJECT_ID":"2021-021U","PERIAPSIS":"545.977","MEAN_ANOMALY":"300.9298","SEMIMAJOR_AXIS":"6925.332","EPHEMERIS_TYPE":"0","MEAN_MOTION_DOT":"0.00001262","NORAD_CAT_ID":"47878","BSTAR":"0.00010357000000","ELEMENT_SET_NO":"999","GP_ID":"205445435","ECCENTRICITY":"0.00017620","APOAPSIS":"548.418","EPOCH":"2022-06-05T17:00:30.144672","COUNTRY_CODE":"US","CENTER_NAME":"EARTH","ARG_OF_PERICENTER":"59.1864","SITE":"AFETR","TIME_SYSTEM":"UTC","CLASSIFICATION_TYPE":"U","OBJECT_NAME":"STARLINK-2335","OBJECT_TYPE":"PAYLOAD","RA_OF_ASC_NODE":"315.1773"}];
